<?xml version="1.0" encoding="UTF-8"?>
<kml xmlns="http://www.opengis.net/kml/2.2"><Document><name>ตัวอย่างเส้นแม่น้ำที่วาดเอง</name>
<Placemark><name>แม่น้ำตัวอย่าง (ไม่มีค่าระดับ)</name><LineString><tessellate>1</tessellate>
<coordinates>100.550026,14.349938,0 100.551285,14.350301,0 100.552248,14.350863,0 100.552797,14.351947,0 100.553351,14.353185,0 100.553577,14.354280,0 100.553820,14.355563,0 100.554447,14.356657,0 100.555302,14.357601,0 100.556454,14.357936,0 100.557681,14.357867,0 100.558776,14.357285,0 100.559623,14.355742,0 100.560245,14.355056,0 100.560981,14.353811,0 100.562134,14.353184,0 100.563339,14.353265,0 100.564367,14.353846,0 100.564946,14.354780,0 100.565273,14.356142,0 100.565564,14.357351,0 100.566114,14.358340,0 100.567245,14.359056,0 100.568880,14.359075,0 100.569735,14.358441,0 100.570759,14.357751,0 100.571760,14.356851,0 100.572664,14.355956,0 100.573789,14.355274,0 100.575013,14.355084,0 100.576400,14.355194,0 100.577281,14.355880,0 100.578245,14.356661,0 100.579121,14.357725,0 100.579751,14.359145,0 100.580306,14.360252,0 100.580904,14.361202,0 100.581715,14.362164,0 100.582960,14.362816,0 100.584197,14.362848,0 100.585316,14.362539,0 100.586376,14.361860,0 100.587209,14.360884,0 100.587817,14.359834,0 100.588623,14.358907,0 100.589596,14.358088,0 100.591193,14.357781,0 100.592355,14.358004,0 100.593357,14.358853,0 100.593956,14.359982,0 100.594302,14.361055,0 100.594661,14.362323,0 100.595495,14.363173,0 100.596469,14.363795,0 100.597822,14.363907,0 100.598897,14.363625,0 100.600156,14.362958,0 100.601358,14.361994,0 100.602102,14.360960,0 100.602980,14.360241,0 100.603865,14.359239,0 100.604851,14.358418,0 100.605864,14.357815,0 100.607071,14.357542,0 100.608423,14.357594,0 100.609511,14.358047,0 100.610433,14.358935,0 100.611050,14.360072,0 100.611348,14.361610,0 100.611824,14.362893,0 100.612388,14.364032,0 100.613039,14.364919,0 100.614056,14.365610,0 100.615408,14.365681,0 100.616570,14.365474,0 100.617559,14.364622,0 100.618127,14.363619,0 100.618588,14.362598,0 100.619355,14.361282,0 100.620658,14.360494,0 100.621990,14.360258,0 100.623056,14.360928,0 100.623607,14.361807,0 100.623992,14.363038,0 100.624485,14.364265,0 100.625126,14.365330,0 100.626112,14.365887,0 100.627410,14.365766,0 100.628593,14.365291,0 100.629541,14.364590,0 100.630309,14.363536,0 100.631070,14.361985,0 100.631679,14.361111,0 100.632459,14.360132,0 100.633565,14.359436,0 100.634512,14.358967,0 100.635915,14.359149,0 100.636962,14.359696,0 100.637596,14.360799,0 100.638424,14.361741,0 100.639294,14.362626,0 100.640621,14.362922,0 100.642051,14.362139,0 100.642822,14.361187,0 100.643275,14.360039,0 100.643582,14.358953,0 100.644096,14.357853,0 100.645038,14.356973,0 100.646518,14.356936,0 100.647558,14.357370,0 100.648422,14.358309,0 100.649059,14.359120,0 100.649353,14.360384,0 100.649735,14.362122,0 100.650043,14.363096,0 100.650695,14.364148,0 100.651626,14.365024,0 100.652930,14.365347,0 100.654061,14.365042,0 100.655319,14.364595,0 100.656338,14.363770,0 100.656900,14.362917,0 100.657515,14.361782,0 100.658428,14.360825,0 100.659646,14.359439,0 100.660390,14.358759,0 100.661544,14.358323,0 100.662933,14.358361,0 100.663882,14.358957,0 100.664480,14.359941,0 100.664755,14.361239,0 100.665177,14.362415,0 100.665899,14.363288,0 100.667147,14.363587,0 100.668211,14.363041,0 100.668725,14.361851,0 100.669118,14.360394,0 100.669696,14.359349,0 100.670908,14.358810,0 100.672071,14.359088,0 100.673228,14.359420,0 100.674433,14.360202,0 100.675213,14.361072,0 100.676051,14.362163,0 100.676968,14.362785,0 100.677886,14.363699,0 100.679030,14.364265,0 100.680735,14.364449,0 100.681927,14.364166,0 100.682798,14.363245,0 100.683647,14.362139,0 100.684061,14.361245,0 100.684538,14.359987,0 100.685228,14.359022,0 100.686218,14.358166,0 100.687557,14.357941,0 100.688579,14.358124,0 100.689625,14.358802,0 100.690190,14.360379,0 100.690853,14.361443,0 100.691724,14.362356,0 100.692802,14.362807,0 100.693992,14.362533,0 100.694981,14.361776,0 100.695535,14.360645,0 100.695787,14.359401,0 100.696139,14.358301,0 100.696524,14.357075,0 100.697387,14.356320,0 100.699052,14.356152,0 100.700071,14.356928,0 100.700697,14.357850,0 100.701205,14.359125,0 100.702050,14.359920,0 100.703113,14.360208,0 100.704533,14.359939,0 100.705552,14.359481,0 100.706485,14.358670,0 100.707485,14.357698,0 100.708373,14.356782,0 100.709217,14.355973,0 100.710614,14.355103,0 100.711749,14.354918,0 100.713283,14.355019,0 100.714253,14.355537,0 100.714971,14.356382,0 100.715665,14.357362,0 100.716352,14.358460,0 100.716989,14.359494,0 100.718121,14.360316,0 100.719286,14.360541,0 100.720651,14.360272,0 100.722037,14.359421,0 100.722549,14.358429,0 100.723371,14.357342,0 100.723835,14.356303,0 100.724740,14.355317,0 100.725591,14.354604,0 100.726762,14.353971,0 100.727893,14.354026,0 100.729195,14.354651,0 100.729957,14.355509,0 100.730359,14.356678,0 100.731689,14.357703,0 100.732846,14.357775,0 100.734041,14.357340,0 100.734759,14.356396,0 100.735437,14.355237,0 100.735455,14.354037,0 100.735744,14.352862,0 100.736275,14.351753,0 100.737033,14.350760,0 100.738230,14.350388,0 100.739450,14.350421,0 100.740876,14.351438,0 100.741594,14.352411,0 100.742377,14.353376,0 100.743246,14.354285,0 100.744317,14.354926,0 100.745588,14.354996,0 100.746778,14.354718,0 100.747909,14.354107,0 100.748702,14.353261,0 100.749495,14.352256,0 100.750282,14.351488,0 100.751279,14.350540,0 100.752809,14.350114,0 100.754179,14.350313,0 100.755084,14.350907,0 100.755855,14.351844,0 100.756539,14.352892,0 100.757249,14.353999,0 100.758172,14.354823,0 100.759272,14.355028,0 100.760669,14.354725,0 100.761655,14.353947,0 100.762243,14.353009,0 100.763067,14.351318,0 100.763465,14.350369,0 100.764141,14.349346,0 100.765226,14.348502,0 100.766419,14.348453,0 100.767663,14.348471,0 100.768466,14.349298,0 100.769277,14.350381,0 100.769402,14.351733,0 100.769620,14.352780,0 100.770293,14.354004,0 100.771483,14.355040,0 100.772773,14.355168,0 100.773909,14.354659,0 100.774881,14.353913,0 100.775590,14.353054,0 100.776045,14.351731,0 100.776696,14.350662,0 100.777340,14.349716,0 100.778310,14.349049,0 100.779593,14.348700,0 100.780840,14.348994,0 100.782054,14.349923,0</coordinates></LineString></Placemark></Document></kml>